{
  "type": "FeatureCollection",
  "features": [
    {
      "type": "Feature",
      "properties": {
        "name": "North West Wales Service Area"
      },
      "geometry": {
        "type": "Polygon",
        "coordinates": [[
          [-4.72, 53.42],
          [-4.62, 53.46],
          [-4.48, 53.50],
          [-4.35, 53.50],
          [-4.20, 53.48],
          [-4.05, 53.46],
          [-3.90, 53.42],
          [-3.68, 53.36],
          [-3.58, 53.32],
          [-3.52, 53.26],
          [-3.52, 53.18],
          [-3.58, 53.10],
          [-3.65, 53.02],
          [-3.75, 52.95],
          [-3.92, 52.85],
          [-4.10, 52.78],
          [-4.35, 52.74],
          [-4.58, 52.72],
          [-4.78, 52.76],
          [-4.85, 52.86],
          [-4.88, 53.00],
          [-4.88, 53.15],
          [-4.85, 53.30],
          [-4.78, 53.38],
          [-4.72, 53.42]
        ]]
      }
    }
  ]
}